ONEWEB-0029             
1 45445U 20020X   25287.11249292 -.00000503  00000+0 -14556-2 0  9992
2 45445  87.8823  70.0674 0001575  96.2573 263.8734 13.11415382270409
ONEWEB-0068             
1 45446U 20020Y   25287.32515250  .00000293  00000+0  79121-3 0  9990
2 45446  87.8821  70.0132 0001447  97.2880 262.8413 13.11415369270371
ONEWEB-0046             
1 45447U 20020Z   25287.31681388  .00000485  00000+0  13330-2 0  9998
2 45447  87.8821  70.0238 0001493  86.3710 273.7589 13.11416249270385
ONEWEB-0063             
1 45448U 20020AA  25287.11673643 -.00000419  00000+0 -12169-2 0  9990
2 45448  87.8816  70.0615 0001695  87.4990 272.6332 13.11415421270447
ONEWEB-0019             
1 45449U 20020AB  25287.31935760  .00000461  00000+0  12645-2 0  9998
2 45449  87.8813  70.0362 0001615  98.2578 261.8733 13.11414048270313
ONEWEB-0094             
1 45450U 20020AC  25287.32160496 -.00000120  00000+0 -34268-3 0  9997
2 45450  87.9103  54.7244 0001631  99.5936 260.5380 13.17650290273938
ONEWEB-0087             
1 45451U 20020AD  25287.12677117 -.00000443  00000+0 -12862-2 0  9992
2 45451  87.8830  70.0123 0001287  99.6573 260.4700 13.11416645270331
ONEWEB-0082             
1 45452U 20020AE  25287.12351789  .00000820  00000+0  22778-2 0  9991
2 45452  87.8825  70.0383 0001390  98.7393 261.3893 13.11409614270420
ONEWEB-0050             
1 45453U 20020AF  25286.90700565  .00003806  00000+0  40128-3 0  9994
2 45453  88.6589 267.0469 0004498 105.9485 254.2239 14.89116324303718
ONEWEB-0034             
1 45454U 20020AG  25287.29731514  .00000228  00000+0  60731-3 0  9993
2 45454  87.8826  70.0230 0001603  95.1239 265.0072 13.11418563270367
ONEWEB-0060             
1 45455U 20020AH  25287.11588802 -.00000419  00000+0 -12176-2 0  9998
2 45455  87.8813  70.0829 0000748 144.0039 216.1139 13.11416655270292
ONEWEB-0086             
1 45456U 20020AJ  25287.32359880  .00000266  00000+0  71527-3 0  9998
2 45456  87.8819  70.0143 0001670 122.8409 237.2880 13.11415758270388
ONEWEB-0088             
1 45457U 20020AK  25287.14897374  .00000354  00000+0  96430-3 0  9992
2 45457  87.8827  69.9985 0001581  91.7447 268.3862 13.11415733270294
ONEWEB-0102             
1 47258U 20100A   25287.26991844 -.00000354  00000+0 -10191-2 0  9993
2 47258  87.8960  39.5373 0001868 101.8194 258.3144 13.12442839232475
ONEWEB-0109             
1 47259U 20100B   25287.27803261 -.00000174  00000+0 -51855-3 0  9993
2 47259  87.8958  39.5035 0001821 103.1734 256.9597 13.12444334232302
ONEWEB-0110             
1 47260U 20100C   25287.30398739  .00000432  00000+0  11664-2 0  9996
2 47260  87.8953  39.4823 0001624 109.4747 250.6557 13.12443678232472
ONEWEB-0111             
1 47261U 20100D   25287.25857066 -.00000283  00000+0 -82277-3 0  9999
2 47261  87.8961  39.5090 0001712 101.2312 258.9009 13.12442267232303
ONEWEB-0114             
1 47262U 20100E   25287.28938922  .00000156  00000+0  39841-3 0  9990
2 47262  87.8957  39.4967 0002025  98.9738 261.1620 13.12444372232262
ONEWEB-0117             
1 47263U 20100F   25287.28127542 -.00000010  00000+0 -63024-4 0  9991
2 47263  87.8959  39.4963 0001654 101.3630 258.7684 13.12445096232275
ONEWEB-0118             
1 47264U 20100G   25287.31371459  .00000376  00000+0  10086-2 0  9995
2 47264  87.8960  39.4891 0001956  92.8295 267.3058 13.12444289232470
ONEWEB-0119             
1 47265U 20100H   25287.26505211 -.00000351  00000+0 -10124-2 0  9993
2 47265  87.8960  39.5360 0001749 102.3415 257.7909 13.12443691232445
ONEWEB-0120             
1 47266U 20100J   25287.28790606  .00000156  00000+0  39695-3 0  9996
2 47266  87.8959  39.5332 0001828 100.8347 259.2987 13.12444403232476
ONEWEB-0121             
1 47267U 20100K   25287.27641365 -.00000206  00000+0 -60810-3 0  9994
2 47267  87.8948  39.5009 0001626 106.3334 253.7974 13.12444918232385
ONEWEB-0122             
1 47268U 20100L   25287.27140189 -.00000332  00000+0 -95880-3 0  9998
2 47268  87.8958  39.5055 0001834 105.4183 254.7149 13.12443230232292
ONEWEB-0123             
1 47269U 20100M   25287.26668036 -.00000294  00000+0 -85366-3 0  9999
2 47269  87.8958  39.5338 0001702  97.5143 262.6179 13.12443294232435
ONEWEB-0124             
1 47270U 20100N   25287.33156407 -.00000183  00000+0 -54385-3 0  9997
2 47270  87.8961  39.5243 0001513 101.7819 258.3480 13.12442368232320
ONEWEB-0125             
1 47271U 20100P   25287.30885253  .00000336  00000+0  89892-3 0  9992
2 47271  87.8957  39.4910 0001606  91.9762 268.1550 13.12442755232389
ONEWEB-0126             
1 47272U 20100Q   25287.33008392 -.00000140  00000+0 -42357-3 0  9997
2 47272  87.8962  39.5101 0001808 100.4719 259.6613 13.12441274232459
ONEWEB-0127             
1 47273U 20100R   25287.29587774  .00000306  00000+0  81412-3 0  9996
2 47273  87.8957  39.5277 0001905 102.5701 257.5641 13.12444288232478
ONEWEB-0128             
1 47274U 20100S   25287.31858450  .00000348  00000+0  93186-3 0  9999
2 47274  87.8947  39.5448 0001568 114.8762 245.2530 13.12441162232497
ONEWEB-0129             
1 47275U 20100T   25287.29750379  .00000311  00000+0  83001-3 0  9993
2 47275  87.8959  39.4962 0002945 101.7778 258.3682 13.12444241232420
ONEWEB-0130             
1 47276U 20100U   25287.32507724 -.00000080  00000+0 -25884-3 0  9992
2 47276  87.8957  39.4869 0001830 104.4063 255.7269 13.12441312232398
ONEWEB-0131             
1 47277U 20100V   25287.32183684  .00000043  00000+0  82923-4 0  9993
2 47277  87.8957  39.5175 0001751 103.0496 257.0828 13.12441193232435
ONEWEB-0132             
1 47278U 20100W   25287.27479150 -.00000254  00000+0 -74147-3 0  9998
2 47278  87.8957  39.5287 0001702 101.9508 258.1812 13.12444482232324
ONEWEB-0133             
1 47279U 20100X   25287.29087853  .00000237  00000+0  62314-3 0  9998
2 47279  87.8950  39.4915 0001649 105.7937 254.3373 13.12443694232484
ONEWEB-0134             
1 47280U 20100Y   25287.03147730 -.00000355  00000+0 -10216-2 0  9999
2 47280  87.8960  39.5342 0001855 108.5325 251.6006 13.12442384232425
ONEWEB-0135             
1 47281U 20100Z   25287.30724359  .00000373  00000+0  10017-2 0  9995
2 47281  87.8962  39.5197 0001873 114.9271 245.2053 13.12442686232489
ONEWEB-0136             
1 47282U 20100AA  25287.32670266 -.00000016  00000+0 -79494-4 0  9997
2 47282  87.8956  39.4840 0002097 111.1746 248.9607 13.12442151232417
ONEWEB-0137             
1 47283U 20100AB  25287.28452189 -.00000042  00000+0 -15104-3 0  9991
2 47283  87.8958  39.4984 0001850  95.3804 264.7536 13.12444617232318
ONEWEB-0138             
1 47284U 20100AC  25287.26343201 -.00000299  00000+0 -86710-3 0  9999
2 47284  87.8959  39.5124 0001845 105.8223 254.3109 13.12442105232392
ONEWEB-0139             
1 47285U 20100AD  25287.30251155  .00000431  00000+0  11638-2 0  9993
2 47285  87.8954  39.4947 0001754 100.9030 259.2296 13.12444730232477
ONEWEB-0140             
1 47286U 20100AE  25287.25694852 -.00000242  00000+0 -70781-3 0  9990
2 47286  87.8960  39.4893 0001775 104.2592 255.8734 13.12441949232432
ONEWEB-0141             
1 47287U 20100AF  25287.30223797  .00000422  00000+0  11389-2 0  9999
2 47287  87.8949  39.4932 0001916  91.3444 268.7905 13.12442402232420
ONEWEB-0142             
1 47288U 20100AG  25287.29115527  .00000199  00000+0  51731-3 0  9996
2 47288  87.8957  39.5146 0002089  93.9561 266.1806 13.12444549232413
ONEWEB-0143             
1 47289U 20100AH  25287.30074980  .00000386  00000+0  10376-2 0  9993
2 47289  87.8956  39.5088 0001717 100.6198 259.5124 13.12442193232396
ONEWEB-0144             
1 47290U 20100AJ  25287.27321374 -.00003371  00000+0 -94118-2 0  9998
2 47290  87.8954  39.4871 0001851 102.3499 257.7837 13.12414458232313
ONEWEB-0145             
1 47291U 20100AK  25287.32021199  .00000121  00000+0  30027-3 0  9995
2 47291  87.8956  39.5112 0001825 101.4386 258.6948 13.12441349232515
ONEWEB-0146             
1 47292U 20100AL  25287.31697082  .00000259  00000+0  68343-3 0  9999
2 47292  87.8958  39.4987 0001429 102.7408 257.3881 13.12441999232429
ONEWEB-0147             
1 47293U 20100AM  25287.28289735  .00000028  00000+0  42335-4 0  9996
2 47293  87.8958  39.4835 0001819 109.5578 250.5748 13.12444626232313
ONEWEB-0115             
1 48042U 21025A   25287.27443433 -.00000133  00000+0 -39810-3 0  9994
2 48042  87.9055   9.0788 0001789 100.4134 259.7197 13.13470784221311
ONEWEB-0152             
1 48043U 21025B   25287.28798411  .00000165  00000+0  41734-3 0  9996
2 48043  87.9046   9.0889 0001689 102.6510 257.4808 13.13469467221270
ONEWEB-0153             
1 48044U 21025C   25287.26597376 -.00000278  00000+0 -79565-3 0  9992
2 48044  87.9054   9.0951 0001912  98.0825 262.0522 13.13469752221267
ONEWEB-0154             
1 48045U 21025D   25287.26258110 -.00000139  00000+0 -41483-3 0  9997
2 48045  87.9057   9.0923 0001823 102.7700 257.3633 13.13470913221223
ONEWEB-0116             
1 48046U 21025E   25287.22535059  .00000284  00000+0  74287-3 0  9991
2 48046  87.9055   9.0821 0001675 102.5913 257.5404 13.13469874221365
ONEWEB-0150             
1 48047U 21025F   25287.27782678  .00000077  00000+0  17652-3 0  9991
2 48047  87.9054   9.0665 0001887  94.3777 265.7567 13.13470785221265
ONEWEB-0107             
1 48048U 21025G   25287.27951977 -.00000014  00000+0 -72921-4 0  9996
2 48048  87.9055   9.0635 0002128  99.9639 260.1730 13.13471126221240
ONEWEB-0101             
1 48049U 21025H   25287.16610979 -.00000052  00000+0 -17767-3 0  9997
2 48049  87.9044   9.1234 0001982 104.0145 256.1205 13.13469995221201
ONEWEB-0113             
1 48050U 21025J   25287.28177556  .00000033  00000+0  54157-4 0  9993
2 48050  87.9050   9.0369 0001633  96.0246 264.1070 13.13979611221315
ONEWEB-0112             
1 48051U 21025K   25287.28460443  .00000052  00000+0  10817-3 0  9999
2 48051  87.9059   9.0594 0001772  97.7457 262.3873 13.13470130221314
